{"type": "FeatureCollection", "features": [ {"type": "Feature", "properties": {"norad_id": 37532, "name": "COSMOS 2251 DEB", "group": "cosmos-2251-debris", "lat": -54.80097069979161, "lon": 41.267173253574505, "alt_km": 751.0623401904113, "timestamp": "2025-12-22T15:43:49.407380+00:00", "meta": {"OBJECT_NAME": "COSMOS 2251 DEB", "OBJECT_ID": "1993-036BNM", "EPOCH": "2025-12-14T09:22:45.259968", "MEAN_MOTION": 14.42410404, "ECCENTRICITY": 0.00160101, "INCLINATION": 74.0496, "RA_OF_ASC_NODE": 212.6604, "ARG_OF_PERICENTER": 313.2255, "MEAN_ANOMALY": 226.6563, "EPHEMERIS_TYPE": 0, "CLASSIFICATION_TYPE": "U", "NORAD_CAT_ID": 37532, "ELEMENT_SET_NO": 999, "REV_AT_EPOCH": 84939, "BSTAR": 0.00027461522, "MEAN_MOTION_DOT": 8.83e-06, "MEAN_MOTION_DDOT": 0}, "tle": {"line1": "1 37532U 93036BNM 25348.39080162  .00000883  00000+0  27462-3 0  9994", "line2": "2 37532  74.0496 212.6604 0016010 313.2255 226.6563 14.42410404849399"}}, "geometry": {"type": "Point", "coordinates": [41.267173253574505, -54.80097069979161]}}, {"type": "Feature", "properties": {"norad_id": 37533, "name": "COSMOS 2251 DEB", "group": "cosmos-2251-debris", "lat": -25.084978017534127, "lon": 166.64505791254481, "alt_km": 885.3270009240978, "timestamp": "2025-12-22T15:43:49.407390+00:00", "meta": {"OBJECT_NAME": "COSMOS 2251 DEB", "OBJECT_ID": "1993-036BNN", "EPOCH": "2025-12-17T06:38:38.162976", "MEAN_MOTION": 14.12190824, "ECCENTRICITY": 0.0157786, "INCLINATION": 74.0692, "RA_OF_ASC_NODE": 183.8069, "ARG_OF_PERICENTER": 239.4795, "MEAN_ANOMALY": 119.0691, "EPHEMERIS_TYPE": 0, "CLASSIFICATION_TYPE": "U", "NORAD_CAT_ID": 37533, "ELEMENT_SET_NO": 999, "REV_AT_EPOCH": 62985, "BSTAR": 0.0010470743, "MEAN_MOTION_DOT": 2.138e-05, "MEAN_MOTION_DDOT": 0}, "tle": {"line1": "1 37533U 93036BNN 25351.27683059  .00002138  00000+0  10471-2 0  9996", "line2": "2 37533  74.0692 183.8069 0157786 239.4795 119.0691 14.12190824629858"}}, "geometry": {"type": "Point", "coordinates": [166.64505791254481, -25.084978017534127]}}, {"type": "Feature", "properties": {"norad_id": 37535, "name": "COSMOS 2251 DEB", "group": "cosmos-2251-debris", "lat": 68.22417655387902, "lon": -171.21004089282613, "alt_km": 690.0417664745773, "timestamp": "2025-12-22T15:43:49.407402+00:00", "meta": {"OBJECT_NAME": "COSMOS 2251 DEB", "OBJECT_ID": "1993-036BNQ", "EPOCH": "2025-12-22T05:38:08.963808", "MEAN_MOTION": 14.58515005, "ECCENTRICITY": 0.0027223, "INCLINATION": 74.0233, "RA_OF_ASC_NODE": 55.4118, "ARG_OF_PERICENTER": 193.2382, "MEAN_ANOMALY": 224.4716, "EPHEMERIS_TYPE": 0, "CLASSIFICATION_TYPE": "U", "NORAD_CAT_ID": 37535, "ELEMENT_SET_NO": 999, "REV_AT_EPOCH": 85463, "BSTAR": 0.00065407851, "MEAN_MOTION_DOT": 3.026e-05, "MEAN_MOTION_DDOT": 0}, "tle": {"line1": "1 37535U 93036BNQ 25356.23482597  .00003026  00000+0  65408-3 0  9991", "line2": "2 37535  74.0233  55.4118 0027223 193.2382 224.4716 14.58515005854638"}}, "geometry": {"type": "Point", "coordinates": [-171.21004089282613, 68.22417655387902]}}, {"type": "Feature", "properties": {"norad_id": 37537, "name": "COSMOS 2251 DEB", "group": "cosmos-2251-debris", "lat": -73.73908943586058, "lon": 146.25812234490405, "alt_km": 790.2619152074194, "timestamp": "2025-12-22T15:43:49.407413+00:00", "meta": {"OBJECT_NAME": "COSMOS 2251 DEB", "OBJECT_ID": "1993-036BNS", "EPOCH": "2025-12-21T23:27:31.159008", "MEAN_MOTION": 14.37503433, "ECCENTRICITY": 0.00506975, "INCLINATION": 74.0118, "RA_OF_ASC_NODE": 248.1014, "ARG_OF_PERICENTER": 25.8838, "MEAN_ANOMALY": 334.4834, "EPHEMERIS_TYPE": 0, "CLASSIFICATION_TYPE": "U", "NORAD_CAT_ID": 37537, "ELEMENT_SET_NO": 999, "REV_AT_EPOCH": 85166, "BSTAR": 0.00018759264, "MEAN_MOTION_DOT": 5.44e-06, "MEAN_MOTION_DDOT": 0}, "tle": {"line1": "1 37537U 93036BNS 25355.97744397  .00000544  00000+0  18759-3 0  9991", "line2": "2 37537  74.0118 248.1014 0050697  25.8838 334.4834 14.37503433851667"}}, "geometry": {"type": "Point", "coordinates": [146.25812234490405, -73.73908943586058]}}, {"type": "Feature", "properties": {"norad_id": 37546, "name": "COSMOS 2251 DEB", "group": "cosmos-2251-debris", "lat": 73.72851516655757, "lon": 157.43117627630508, "alt_km": 615.6966855990158, "timestamp": "2025-12-22T15:43:49.407424+00:00", "meta": {"OBJECT_NAME": "COSMOS 2251 DEB", "OBJECT_ID": "1993-036BPB", "EPOCH": "2025-12-22T05:36:41.418144", "MEAN_MOTION": 14.80847243, "ECCENTRICITY": 0.00051432, "INCLINATION": 74.0225, "RA_OF_ASC_NODE": 79.2675, "ARG_OF_PERICENTER": 73.5105, "MEAN_ANOMALY": 286.6636, "EPHEMERIS_TYPE": 0, "CLASSIFICATION_TYPE": "U", "NORAD_CAT_ID": 37546, "ELEMENT_SET_NO": 999, "REV_AT_EPOCH": 66028, "BSTAR": 0.0026855013, "MEAN_MOTION_DOT": 0.00020767, "MEAN_MOTION_DDOT": 0}, "tle": {"line1": "1 37546U 93036BPB 25356.23381271  .00020767  00000+0  26855-2 0  9993", "line2": "2 37546  74.0225  79.2675 0005143  73.5105 286.6636 14.80847243660287"}}, "geometry": {"type": "Point", "coordinates": [157.43117627630508, 73.72851516655757]}}, {"type": "Feature", "properties": {"norad_id": 37959, "name": "COSMOS 2251 DEB", "group": "cosmos-2251-debris", "lat": -17.080434402729445, "lon": -136.8972159975745, "alt_km": 665.2002127176538, "timestamp": "2025-12-22T15:43:49.407435+00:00", "meta": {"OBJECT_NAME": "COSMOS 2251 DEB", "OBJECT_ID": "1993-036BPJ", "EPOCH": "2025-12-21T21:31:34.881600", "MEAN_MOTION": 14.58196001, "ECCENTRICITY": 0.00572652, "INCLINATION": 74.0108, "RA_OF_ASC_NODE": 39.4932, "ARG_OF_PERICENTER": 180.3481, "MEAN_ANOMALY": 356.9847, "EPHEMERIS_TYPE": 0, "CLASSIFICATION_TYPE": "U", "NORAD_CAT_ID": 37959, "ELEMENT_SET_NO": 999, "REV_AT_EPOCH": 80260, "BSTAR": 0.00054900426, "MEAN_MOTION_DOT": 2.561e-05, "MEAN_MOTION_DDOT": 0}, "tle": {"line1": "1 37959U 93036BPJ 25355.89693150  .00002561  00000+0  54900-3 0  9999", "line2": "2 37959  74.0108  39.4932 0057265 180.3481 356.9847 14.58196001802608"}}, "geometry": {"type": "Point", "coordinates": [-136.8972159975745, -17.080434402729445]}}, {"type": "Feature", "properties": {"norad_id": 37960, "name": "COSMOS 2251 DEB", "group": "cosmos-2251-debris", "lat": 56.427777082364344, "lon": -164.97652699034268, "alt_km": 962.7976061983318, "timestamp": "2025-12-22T15:43:49.407446+00:00", "meta": {"OBJECT_NAME": "COSMOS 2251 DEB", "OBJECT_ID": "1993-036BPK", "EPOCH": "2025-12-21T05:19:33.246912", "MEAN_MOTION": 14.07880113, "ECCENTRICITY": 0.0248301, "INCLINATION": 74.0587, "RA_OF_ASC_NODE": 172.0268, "ARG_OF_PERICENTER": 188.6422, "MEAN_ANOMALY": 171.0406, "EPHEMERIS_TYPE": 0, "CLASSIFICATION_TYPE": "U", "NORAD_CAT_ID": 37960, "ELEMENT_SET_NO": 999, "REV_AT_EPOCH": 77525, "BSTAR": 0.00064412, "MEAN_MOTION_DOT": 1.424e-05, "MEAN_MOTION_DDOT": 0}, "tle": {"line1": "1 37960U 93036BPK 25355.22191258  .00001424  00000+0  64412-3 0  9996", "line2": "2 37960  74.0587 172.0268 0248301 188.6422 171.0406 14.07880113775251"}}, "geometry": {"type": "Point", "coordinates": [-164.97652699034268, 56.427777082364344]}}, {"type": "Feature", "properties": {"norad_id": 37961, "name": "COSMOS 2251 DEB", "group": "cosmos-2251-debris", "lat": -69.97285423785753, "lon": -10.016009613289254, "alt_km": 692.2487863072911, "timestamp": "2025-12-22T15:43:49.407456+00:00", "meta": {"OBJECT_NAME": "COSMOS 2251 DEB", "OBJECT_ID": "1993-036BPL", "EPOCH": "2025-12-13T03:18:27.462240", "MEAN_MOTION": 14.57979799, "ECCENTRICITY": 0.00406759, "INCLINATION": 74.0407, "RA_OF_ASC_NODE": 136.3488, "ARG_OF_PERICENTER": 216.8805, "MEAN_ANOMALY": 142.9561, "EPHEMERIS_TYPE": 0, "CLASSIFICATION_TYPE": "U", "NORAD_CAT_ID": 37961, "ELEMENT_SET_NO": 999, "REV_AT_EPOCH": 80071, "BSTAR": 0.001729191, "MEAN_MOTION_DOT": 8.011e-05, "MEAN_MOTION_DDOT": 0}, "tle": {"line1": "1 37961U 93036BPL 25347.13781785  .00008011  00000+0  17292-2 0  9990", "line2": "2 37961  74.0407 136.3488 0040675 216.8805 142.9561 14.57979799800716"}}, "geometry": {"type": "Point", "coordinates": [-10.016009613289254, -69.97285423785753]}}, {"type": "Feature", "properties": {"norad_id": 37966, "name": "COSMOS 2251 DEB", "group": "cosmos-2251-debris", "lat": 10.381122263752061, "lon": 26.89594975797679, "alt_km": 525.1195648528483, "timestamp": "2025-12-22T15:43:49.407466+00:00", "meta": {"OBJECT_NAME": "COSMOS 2251 DEB", "OBJECT_ID": "1993-036BPR", "EPOCH": "2025-12-13T08:51:38.421216", "MEAN_MOTION": 15.12745257, "ECCENTRICITY": 0.0008827, "INCLINATION": 73.9781, "RA_OF_ASC_NODE": 229.2381, "ARG_OF_PERICENTER": 105.5668, "MEAN_ANOMALY": 254.6501, "EPHEMERIS_TYPE": 0, "CLASSIFICATION_TYPE": "U", "NORAD_CAT_ID": 37966, "ELEMENT_SET_NO": 999, "REV_AT_EPOCH": 85352, "BSTAR": 0.0033929, "MEAN_MOTION_DOT": 0.00060007, "MEAN_MOTION_DDOT": 0}, "tle": {"line1": "1 37966U 93036BPR 25347.36919469  .00060007  00000+0  33929-2 0  9990", "line2": "2 37966  73.9781 229.2381 0008827 105.5668 254.6501 15.12745257853526"}}, "geometry": {"type": "Point", "coordinates": [26.89594975797679, 10.381122263752061]}}, {"type": "Feature", "properties": {"norad_id": 37967, "name": "COSMOS 2251 DEB", "group": "cosmos-2251-debris", "lat": 54.10136068602685, "lon": -84.31414625412978, "alt_km": 823.8211485036809, "timestamp": "2025-12-22T15:43:49.407477+00:00", "meta": {"OBJECT_NAME": "COSMOS 2251 DEB", "OBJECT_ID": "1993-036BPS", "EPOCH": "2025-12-22T01:49:01.207488", "MEAN_MOTION": 14.40612798, "ECCENTRICITY": 0.01510383, "INCLINATION": 74.0159, "RA_OF_ASC_NODE": 120.0869, "ARG_OF_PERICENTER": 256.8884, "MEAN_ANOMALY": 101.5378, "EPHEMERIS_TYPE": 0, "CLASSIFICATION_TYPE": "U", "NORAD_CAT_ID": 37967, "ELEMENT_SET_NO": 999, "REV_AT_EPOCH": 64870, "BSTAR": 0.0017999516, "MEAN_MOTION_DOT": 6.547e-05, "MEAN_MOTION_DDOT": 0}, "tle": {"line1": "1 37967U 93036BPS 25356.07570842  .00006547  00000+0  18000-2 0  9999", "line2": "2 37967  74.0159 120.0869 0151038 256.8884 101.5378 14.40612798648707"}}, "geometry": {"type": "Point", "coordinates": [-84.31414625412978, 54.10136068602685]}}]}